MEAN_MOTION;ECCENTRICITY;INCLINATION;RA_OF_ASC_NODE;ARG_OF_PERICENTER;MEAN_ANOMALY;BSTAR;MEAN_MOTION_DOT;MEAN_MOTION_DDOT;TYPE
14.38873465;0.000511;45.0165;85.2008;270.4325;135.1816;7.3437E-5;8.5E-7;0;Orbcomm
14.38873763;0.0005112;45.0165;82.2238;273.1013;144.29;7.5674E-5;9.2E-7;0;Orbcomm
14.38874128;0.00051;45.0166;79.1613;275.8726;246.6739;8.0094E-5;1.06E-6;0;Orbcomm
14.3887464;0.0005084;45.0167;74.5808;280.0776;205.8952;8.096E-5;1.09E-6;0;Orbcomm
14.38874956;0.0005079;45.0168;71.691;282.6041;119.8444;7.9457E-5;1.04E-6;0;Orbcomm
14.38875185;0.0005064;45.0169;69.6219;284.5284;218.099;7.8634E-5;1.02E-6;0;Orbcomm
14.38875597;0.0005039;45.017;65.0134;288.767;207.7862;7.4738E-5;8.9E-7;0;Orbcomm
14.38876229;0.0004985;45.0172;57.8484;295.7021;107.3513;7.4846E-5;9.0E-7;0;Orbcomm
14.38876255;0.0004981;45.0172;57.5148;295.9808;111.4614;7.4191E-5;8.8E-7;0;Orbcomm
14.38876442;0.0004962;45.0172;55.7906;297.6333;193.3086;7.6528E-5;9.5E-7;0;Orbcomm
14.3887678;0.0004926;45.0173;51.8796;301.2028;141.7783;7.3684E-5;8.6E-7;0;Orbcomm
14.38877285;0.0004861;45.0175;46.237;306.5896;179.9465;7.0092E-5;7.5E-7;0;Orbcomm
14.38877748;0.0004802;45.0176;41.6106;310.9207;189.188;6.9628E-5;7.4E-7;0;Orbcomm
14.38878171;0.0004752;45.0178;37.699;314.6623;138.2092;7.359E-5;8.6E-7;0;Orbcomm
14.38878259;0.0004742;45.0178;37.0007;315.3877;180.2382;7.4859E-5;9.0E-7;0;Orbcomm
14.38878677;0.0004681;45.018;32.7075;319.528;185.7419;7.8148E-5;1.0E-6;0;Orbcomm
14.38879169;0.0004609;45.0181;27.7524;324.4423;193.5838;8.0354E-5;1.07E-6;0;Orbcomm
14.38879681;0.0004546;45.0182;23.1379;328.6472;190.1351;7.9998E-5;1.06E-6;0;Orbcomm
14.38880209;0.0004463;45.0182;18.5274;333.4494;181.6944;7.9159E-5;1.03E-6;0;Orbcomm
14.38880894;0.0004371;45.0182;13.6003;338.64;158.7415;8.2844E-5;1.15E-6;0;Orbcomm
14.38881223;0.0004315;45.0182;10.735;341.4753;45.7901;8.3321E-5;1.16E-6;0;Orbcomm
14.38881855;0.0004231;45.0182;6.1186;346.4838;43.6645;9.015E-5;1.37E-6;0;Orbcomm
14.38881926;0.0004221;45.0182;5.7751;346.8425;58.4771;9.1438E-5;1.41E-6;0;Orbcomm
14.38882434;0.0004144;45.0181;1.4874;351.4494;57.6199;9.3774E-5;1.49E-6;0;Orbcomm
14.38882595;0.0004119;45.0181;0.0717;353.1066;162.423;9.3813E-5;1.49E-6;0;Orbcomm
14.38883225;0.0004033;45.0181;355.4718;358.1671;142.0171;9.6192E-5;1.56E-6;0;Orbcomm
14.38883826;0.0003944;45.018;350.5161;3.8439;149.8221;9.4728E-5;1.51E-6;0;Orbcomm
14.38884464;0.0003856;45.018;345.5884;9.6266;126.7886;9.6091E-5;1.56E-6;0;Orbcomm
14.38884903;0.0003789;45.0179;342.0229;13.4723;57.7364;9.6376E-5;1.57E-6;0;Orbcomm
14.38885489;0.0003712;45.0179;337.7631;18.6168;25.7233;9.9732E-5;1.67E-6;0;Orbcomm
14.38885554;0.0003704;45.0178;337.4121;19.0088;48.7732;0.00010082;1.7E-6;0;Orbcomm
14.3888573;0.0003688;45.0178;336.3659;20.4214;110.2539;0.00010271;1.76E-6;0;Orbcomm
14.38886366;0.0003612;45.0177;331.7247;26.1049;134.4586;0.00010282;1.77E-6;0;Orbcomm
14.38887058;0.0003538;45.0175;327.1145;31.9538;124.4392;0.00010328;1.78E-6;0;Orbcomm
14.38888022;0.0003409;45.0172;319.2757;41.9697;36.7973;0.00010007;1.68E-6;0;Orbcomm
14.38888608;0.0003342;45.017;313.9676;48.8187;68.0518;9.951E-5;1.66E-6;0;Orbcomm
14.38889123;0.0003278;45.0169;308.6639;55.9749;94.0247;9.5539E-5;1.54E-6;0;Orbcomm
14.38889214;0.0003264;45.0168;308.0027;57.1047;95.0451;9.5354E-5;1.53E-6;0;Orbcomm
14.38889626;0.0003222;45.0167;304.053;62.6947;83.6109;9.154E-5;1.42E-6;0;Orbcomm
14.38890177;0.000318;45.0167;299.4336;69.4576;82.5607;8.7552E-5;1.29E-6;0;Orbcomm
14.38890752;0.0003152;45.0167;295.8399;74.9284;42.6457;8.8378E-5;1.32E-6;0;Orbcomm
14.38891597;0.0003125;45.0167;289.8748;84.0073;69.2925;9.2905E-5;1.46E-6;0;Orbcomm
14.38891925;0.000311;45.0166;286.6239;88.7083;15.3819;9.0561E-5;1.39E-6;0;Orbcomm
14.38892411;0.0003105;45.0165;282.4063;94.9328;296.0419;9.0914E-5;1.4E-6;0;Orbcomm
14.38892589;0.000311;45.0165;280.3395;98.0636;30.557;8.7675E-5;1.3E-6;0;Orbcomm
14.38892917;0.0003111;45.0164;277.4485;102.5055;303.9261;8.6387E-5;1.26E-6;0;Orbcomm
14.38892995;0.0003125;45.0164;275.6986;104.6789;53.1311;8.1528E-5;1.11E-6;0;Orbcomm
14.3889327;0.0003148;45.0164;271.1167;110.9269;11.5465;7.1984E-5;8.1E-7;0;Orbcomm
14.38893523;0.0003165;45.0163;267.8292;115.6017;357.5842;6.8733E-5;7.1E-7;0;Orbcomm
14.38893947;0.0003203;45.0163;263.2203;122.143;345.2548;7.0518E-5;7.6E-7;0;Orbcomm
14.38894006;0.0003212;45.0163;262.5485;123.0697;358.2096;7.13E-5;7.9E-7;0;Orbcomm
14.38894375;0.0003236;45.0164;258.9864;127.9262;284.1056;7.6129E-5;9.4E-7;0;Orbcomm
14.38894775;0.0003286;45.0164;254.3928;134.11;255.5588;7.6499E-5;9.5E-7;0;Orbcomm
14.38895598;0.0003361;45.0164;249.108;141.7653;260.3591;8.193E-5;1.12E-6;0;Orbcomm
14.38895882;0.0003381;45.0164;247.3683;143.6785;358.9;8.3989E-5;1.18E-6;0;Orbcomm
14.38896533;0.0003452;45.0164;242.7566;149.8007;350.2016;8.5993E-5;1.24E-6;0;Orbcomm
14.38897058;0.0003528;45.0164;238.1469;155.6607;339.6049;8.4808E-5;1.21E-6;0;Orbcomm
14.38897389;0.000358;45.0164;234.9273;159.698;252.3034;8.3507E-5;1.17E-6;0;Orbcomm
14.38897565;0.0003597;45.0164;233.5322;161.4054;334.6425;8.5043E-5;1.22E-6;0;Orbcomm
14.3889786;0.0003654;45.0164;230.3198;165.3013;239.6605;8.3031E-5;1.15E-6;0;Orbcomm
14.38898179;0.0003704;45.0163;227.0014;169.1875;260.638;8.1783E-5;1.11E-6;0;Orbcomm
14.3889828;0.0003737;45.0163;225.3597;171.0988;251.8802;7.7578E-5;9.8E-7;0;Orbcomm
14.38898695;0.0003808;45.0162;221.0952;176.0137;225.1062;7.5013E-5;9.0E-7;0;Orbcomm
14.38898718;0.0003815;45.0162;220.7487;176.4092;243.2781;7.4383E-5;8.8E-7;0;Orbcomm
14.38899097;0.0003892;45.0161;216.4127;181.3376;294.5864;7.1762E-5;8.0E-7;0;Orbcomm
14.38899495;0.0003957;45.0161;212.5316;185.7135;209.5569;7.511E-5;9.1E-7;0;Orbcomm
14.38899771;0.0003986;45.0161;210.8316;187.5848;264.6216;7.9842E-5;1.05E-6;0;Orbcomm
14.38899861;0.0003997;45.0161;210.1339;188.2576;306.0639;8.1079E-5;1.09E-6;0;Orbcomm
14.38900278;0.0004063;45.0161;206.5687;192.255;236.3591;8.5373E-5;1.23E-6;0;Orbcomm
14.38900413;0.0004075;45.016;205.5175;193.2756;303.5969;8.708E-5;1.28E-6;0;Orbcomm
14.38900866;0.0004154;45.016;201.6112;197.4942;246.2268;8.8894E-5;1.34E-6;0;Orbcomm
14.38900982;0.0004172;45.016;200.5587;198.5875;314.7569;8.8332E-5;1.32E-6;0;Orbcomm
14.38901358;0.0004254;45.0159;196.6117;202.6092;302.0041;8.3676E-5;1.17E-6;0;Orbcomm
14.38901413;0.000426;45.0159;195.9539;203.3339;299.8635;8.1991E-5;1.12E-6;0;Orbcomm
14.38901821;0.0004333;45.0158;191.3416;207.9621;293.3004;7.3717E-5;8.6E-7;0;Orbcomm
14.3890223;0.0004402;45.0157;186.7322;212.5172;283.5776;6.8633E-5;7.1E-7;0;Orbcomm
14.38902643;0.0004469;45.0156;182.4714;216.7539;253.47;6.8981E-5;7.2E-7;0;Orbcomm
14.38902683;0.0004472;45.0156;182.1173;217.1033;279.8225;6.9252E-5;7.3E-7;0;Orbcomm
14.3890317;0.0004537;45.0155;177.509;221.6361;268.9495;7.2763E-5;8.3E-7;0;Orbcomm
14.3890317;0.0004537;45.0155;177.509;221.6361;268.9495;7.2763E-5;8.3E-7;0;Orbcomm
14.38903889;0.0004594;45.0153;172.897;226.0528;262.0666;8.5506E-5;1.23E-6;0;Orbcomm
14.38904082;0.0004635;45.0152;170.0048;228.8521;178.3009;7.8289E-5;1.01E-6;0;Orbcomm
14.38904358;0.0004646;45.0152;168.2862;230.45;253.9034;8.1538E-5;1.11E-6;0;Orbcomm
14.38904803;0.000469;45.0152;164.6779;233.8222;231.7415;8.2826E-5;1.15E-6;0;Orbcomm
14.38905326;0.0004695;45.0152;163.3273;235.111;265.7091;0.00010273;1.77E-6;0;Orbcomm
14.38905543;0.0004735;45.0152;159.0686;239.077;233.3379;8.8168E-5;1.31E-6;0;Orbcomm
14.38905588;0.0004736;45.0152;158.7182;239.4087;255.7487;8.828E-5;1.32E-6;0;Orbcomm
14.38906165;0.0004774;45.0152;154.1033;243.6123;252.3015;9.1298E-5;1.41E-6;0;Orbcomm
14.38906753;0.0004809;45.0153;149.1448;248.1039;263.766;9.0118E-5;1.37E-6;0;Orbcomm
14.38907165;0.0004831;45.0153;144.8836;251.8963;234.4392;8.2649E-5;1.14E-6;0;Orbcomm
14.3890746;0.0004848;45.0154;141.6656;254.7075;146.4713;7.542E-5;9.2E-7;0;Orbcomm
14.38907577;0.0004848;45.0154;139.9259;256.31;245.1677;7.0835E-5;7.7E-7;0;Orbcomm
14.38907909;0.0004859;45.0155;135.3159;260.4115;236.5295;6.2373E-5;5.1E-7;0;Orbcomm
14.38907989;0.0004866;45.0155;133.731;261.8552;166.1648;5.8204E-5;3.8E-7;0;Orbcomm
14.3890813;0.0004862;45.0155;130.7037;264.5153;230.2261;5.3868E-5;2.5E-7;0;Orbcomm
14.38908295;0.0004868;45.0156;127.4436;267.3453;188.2757;5.0403E-5;1.4E-7;0;Orbcomm
14.38908389;0.0004864;45.0156;125.7455;268.8469;241.6083;4.9942E-5;1.2E-7;0;Orbcomm
14.38908559;0.0004861;45.0157;122.5278;271.6268;153.309;4.8416E-5;8.0E-8;0;Orbcomm
14.38908646;0.0004853;45.0157;121.1286;272.9065;240.4224;4.826E-5;7.0E-8;0;Orbcomm
14.38908925;0.0004832;45.0158;116.5237;276.9605;226.0884;4.6588E-5;2.0E-8;0;Orbcomm
14.38909232;0.00048;45.016;111.9119;281.0533;219.3608;4.6317E-5;1.0E-8;0;Orbcomm
14.38909471;0.0004776;45.0162;108.3471;284.2113;149.9352;4.7166E-5;4.0E-8;0;Orbcomm
14.38909534;0.0004766;45.0162;107.3019;285.1762;210.6785;4.7278E-5;4.0E-8;0;Orbcomm
14.3890981;0.0004739;45.0164;103.3894;288.6383;160.8567;5.0491E-5;1.4E-7;0;Orbcomm
14.38910036;0.0004711;45.0165;100.1456;291.5212;101.1198;5.2676E-5;2.1E-7;0;Orbcomm
14.38910218;0.0004683;45.0166;97.7394;293.7001;207.3444;5.3736E-5;2.4E-7;0;Orbcomm
14.38910562;0.0004638;45.0168;93.4676;297.489;189.6649;5.4132E-5;2.5E-7;0;Orbcomm
14.38910968;0.0004589;45.0169;89.1753;301.291;194.4961;5.5063E-5;2.8E-7;0;Orbcomm
14.38911073;0.0004572;45.0169;88.5098;301.9764;200.6277;5.6482E-5;3.3E-7;0;Orbcomm
14.38911464;0.0004513;45.0171;84.2497;305.7754;170.2088;5.599E-5;3.1E-7;0;Orbcomm
14.38912167;0.0004404;45.0173;76.4179;312.9779;77.788;6.0389E-5;4.5E-7;0;Orbcomm
14.38912278;0.0004382;45.0173;75.0284;314.2825;154.357;6.1315E-5;4.8E-7;0;Orbcomm
14.38912685;0.0004303;45.0174;70.4175;318.5747;146.6029;6.3996E-5;5.6E-7;0;Orbcomm
14.38913016;0.0004238;45.0175;66.8486;321.8925;81.4667;6.4342E-5;5.7E-7;0;Orbcomm
14.38913436;0.0004152;45.0176;62.1629;326.3631;155.2337;6.2903E-5;5.3E-7;0;Orbcomm
14.38913952;0.0004062;45.0178;57.5532;330.8998;146.0058;6.6386E-5;6.4E-7;0;Orbcomm
14.38914512;0.0003965;45.0179;52.6683;335.6909;77.1759;7.257E-5;8.3E-7;0;Orbcomm
14.38914688;0.0003939;45.0179;51.2742;337.1727;158.568;7.5667E-5;9.2E-7;0;Orbcomm
